OBJECT_NAME,OBJECT_ID,EPOCH,MEAN_MOTION,ECCENTRICITY,INCLINATION,RA_OF_ASC_NODE,ARG_OF_PERICENTER,MEAN_ANOMALY,EPHEMERIS_TYPE,CLASSIFICATION_TYPE,NORAD_CAT_ID,ELEMENT_SET_NO,REV_AT_EPOCH,BSTAR,MEAN_MOTION_DOT,MEAN_MOTION_DDOT
KUIPER-00517,2026-140J,2026-07-16T03:49:19.778016,15.38771993,.0010354,51.8780,258.4032,296.9420,63.0509,0,U,69600,999,569,.6746E-3,.26002E-3,0
KUIPER-00520,2026-140K,2026-07-15T09:42:19.512000,15.37649987,.00067859,51.8807,262.3489,356.7740,3.3202,0,U,69601,999,557,.3302604E-3,.12031E-3,0
KUIPER-00522,2026-140L,2026-07-16T03:44:49.441056,15.38613495,.0012566,51.8773,258.3876,273.7865,86.1686,0,U,69602,999,569,.52413E-3,.20007E-3,0
KUIPER-00528,2026-140M,2026-07-15T09:46:13.498752,15.37496668,.0005838,51.8776,262.3554,2.7431,357.3587,0,U,69603,999,557,.20643255E-3,.7328E-4,0
KUIPER-00532,2026-140N,2026-07-16T04:46:31.972224,15.36575829,.0005956,51.8773,258.6589,38.0411,322.0995,0,U,69604,999,569,.32683E-3,.11484E-3,0
KUIPER-00533,2026-140P,2026-07-15T12:30:23.440896,15.38285218,.0008017,51.8788,261.6239,329.7919,30.2605,0,U,69605,999,559,.42948E-3,.16113E-3,0
KUIPER-00534,2026-140Q,2026-07-16T03:37:18.732000,15.38749471,.0013036,51.8818,258.3620,274.2219,85.7279,0,U,69606,999,569,.50145E-3,.19212E-3,0
KUIPER-00537,2026-140R,2026-07-15T16:53:09.901248,15.34164380,.00101921,51.8798,261.3400,58.6014,301.5967,0,U,69607,999,561,.34099012E-3,.11098E-3,0
KUIPER-00538,2026-140S,2026-07-16T04:21:45.148320,15.37747330,.0006581,51.8799,258.5570,348.4911,11.5924,0,U,69608,999,569,.36308E-3,.13311E-3,0
KUIPER-00540,2026-140T,2026-07-16T04:39:38.047968,15.36978486,.0006984,51.8798,258.6387,26.7612,333.3734,0,U,69609,999,569,.30743E-3,.10925E-3,0
KUIPER-00541,2026-140U,2026-07-16T04:05:15.089856,15.38438450,.0007856,51.8800,258.4872,329.1534,30.8991,0,U,69610,999,569,.47055E-3,.17785E-3,0
KUIPER-00542,2026-140V,2026-07-16T04:03:38.283840,15.38305625,.000786,51.8766,258.4689,310.9817,49.0489,0,U,69611,999,569,.32763E-3,.12198E-3,0
KUIPER-00543,2026-140W,2026-07-16T04:46:19.884000,15.36851259,.0008188,51.8778,258.6591,38.2763,321.8803,0,U,69612,999,569,.31464E-3,.11146E-3,0
KUIPER-00544,2026-140X,2026-07-16T04:10:11.364960,15.38204692,.0006996,51.8776,258.4975,325.3560,34.6971,0,U,69613,999,569,.60707E-3,.22895E-3,0
KUIPER-00546,2026-140Y,2026-07-16T03:39:14.726592,15.38070496,.0014135,51.8770,258.3563,264.6260,95.3115,0,U,69614,999,569,.94797E-3,.35966E-3,0
KUIPER-00547,2026-140Z,2026-07-16T04:02:01.218624,15.37947744,.0010989,51.8819,258.4719,294.4235,65.5605,0,U,69615,999,569,.54781E-3,.20463E-3,0
KUIPER-00549,2026-140AA,2026-07-15T09:48:41.425056,15.37336482,.00079397,51.8779,262.3670,16.4596,343.6647,0,U,69616,999,557,.21107221E-3,.7464E-4,0
KUIPER-00550,2026-140AB,2026-07-16T04:13:43.468320,15.32007135,.0007704,51.8789,259.2458,62.3850,297.7916,0,U,69617,999,568,-.51352E-3,-.16456E-3,0
KUIPER-00551,2026-140AC,2026-07-14T11:18:23.594688,15.38237315,.00121739,51.8780,266.5873,275.8264,84.1335,0,U,69618,999,543,.3516009E-3,.13109E-3,0
KUIPER-00554,2026-140AD,2026-07-16T03:59:18.435840,15.38008185,.0010532,51.8779,258.4492,294.7161,65.2729,0,U,69619,999,569,.56103E-3,.21006E-3,0
KUIPER-00555,2026-140AE,2026-07-16T04:00:01.998720,15.37974184,.0011308,51.8811,258.4252,282.6873,94.8377,0,U,69620,999,516,.80863E-3,.30466E-3,0
KUIPER-00556,2026-140AF,2026-07-15T12:17:57.859872,15.38342895,.0011978,51.8798,261.5737,269.4470,90.5145,0,U,69621,999,559,.38112E-3,.14294E-3,0
KUIPER-00557,2026-140AG,2026-07-15T09:25:01.552512,15.37532137,.00097305,51.8799,262.2684,300.5398,59.4628,0,U,69622,999,557,.34484619E-3,.12541E-3,0
KUIPER-00560,2026-140AH,2026-07-16T04:00:01.998720,15.36998116,.0009146,51.8782,258.4135,315.4770,63.2439,0,U,69623,999,527,.82167E-3,.29968E-3,0
KUIPER-00561,2026-140AJ,2026-07-15T10:47:34.639872,15.38731571,.00081738,51.8811,261.9079,307.9079,52.1169,0,U,69624,999,558,.23456096E-3,.874E-4,0
KUIPER-00564,2026-140AK,2026-07-15T12:27:59.572800,15.37214015,.000923,51.8790,261.6212,303.1110,56.8990,0,U,69625,999,559,.4022E-3,.14541E-3,0
KUIPER-00567,2026-140AL,2026-07-16T04:00:01.998720,15.38305331,.0012878,51.8767,258.3683,272.7466,127.1285,0,U,69626,999,567,.84116E-3,.32082E-3,0
KUIPER-00573,2026-140AM,2026-07-15T11:04:07.897728,15.37486142,.0009393,51.8775,261.9707,287.3188,72.6771,0,U,69627,999,558,.37413004E-3,.13619E-3,0
KZ-11 R/B,2026-138H,2026-07-12T21:48:00.762624,15.43010363,.03770511,55.1520,167.7492,143.6026,219.1292,0,U,69628,999,389,.75497354E-3,.78015E-2,.9750105E-5
CENTISPACE-1 GROUP 05 OBJECT J,2026-138J,2026-07-13T09:42:48.125952,14.15842380,.00095471,55.1383,184.3032,341.3483,18.7141,0,U,69636,999,370,-.51944164E-4,-.256E-5,0
