KUIPER-00517            
1 69600U 26140J   26197.15925669  .00026002  00000+0  67460-3 0  9997
2 69600  51.8780 258.4032 0010354 296.9420  63.0509 15.38771993  5697
KUIPER-00520            
1 69601U 26140K   26196.40439250  .00012031  00000+0  33026-3 0  9999
2 69601  51.8807 262.3489 0006785 356.7740   3.3202 15.37649987  5571
KUIPER-00522            
1 69602U 26140L   26197.15612779  .00020007  00000+0  52413-3 0  9995
2 69602  51.8773 258.3876 0012566 273.7865  86.1686 15.38613495  5693
KUIPER-00528            
1 69603U 26140M   26196.40710068  .00007328  00000+0  20643-3 0  9994
2 69603  51.8776 262.3554 0005838   2.7431 357.3587 15.37496668  5578
KUIPER-00532            
1 69604U 26140N   26197.19898116  .00011484  00000+0  32683-3 0  9998
2 69604  51.8773 258.6589 0005956  38.0411 322.0995 15.36575829  5694
KUIPER-00533            
1 69605U 26140P   26196.52110464  .00016113  00000+0  42948-3 0  9997
2 69605  51.8788 261.6239 0008017 329.7919  30.2605 15.38285218  5598
KUIPER-00534            
1 69606U 26140Q   26197.15091125  .00019212  00000+0  50145-3 0  9991
2 69606  51.8818 258.3620 0013036 274.2219  85.7279 15.38749471  5693
KUIPER-00537            
1 69607U 26140R   26196.70358682  .00011098  00000+0  34099-3 0  9990
2 69607  51.8798 261.3400 0010192  58.6014 301.5967 15.34164380  5619
KUIPER-00538            
1 69608U 26140S   26197.18177255  .00013311  00000+0  36308-3 0  9994
2 69608  51.8799 258.5570 0006581 348.4911  11.5924 15.37747330  5694
KUIPER-00540            
1 69609U 26140T   26197.19419037  .00010925  00000+0  30743-3 0  9998
2 69609  51.8798 258.6387 0006984  26.7612 333.3734 15.36978486  5693
KUIPER-00541            
1 69610U 26140U   26197.17031354  .00017785  00000+0  47055-3 0  9995
2 69610  51.8800 258.4872 0007856 329.1534  30.8991 15.38438450  5696
KUIPER-00542            
1 69611U 26140V   26197.16919310  .00012198  00000+0  32763-3 0  9995
2 69611  51.8766 258.4689 0007860 310.9817  49.0489 15.38305625  5692
KUIPER-00543            
1 69612U 26140W   26197.19884125  .00011146  00000+0  31464-3 0  9993
2 69612  51.8778 258.6591 0008188  38.2763 321.8803 15.36851259  5692
KUIPER-00544            
1 69613U 26140X   26197.17374265  .00022895  00000+0  60707-3 0  9996
2 69613  51.8776 258.4975 0006996 325.3560  34.6971 15.38204692  5695
KUIPER-00546            
1 69614U 26140Y   26197.15225378  .00035966  00000+0  94797-3 0  9994
2 69614  51.8770 258.3563 0014135 264.6260  95.3115 15.38070496  5695
KUIPER-00547            
1 69615U 26140Z   26197.16806966  .00020463  00000+0  54781-3 0  9999
2 69615  51.8819 258.4719 0010989 294.4235  65.5605 15.37947744  5691
KUIPER-00549            
1 69616U 26140AA  26196.40881279  .00007464  00000+0  21107-3 0  9998
2 69616  51.8779 262.3670 0007939  16.4596 343.6647 15.37336482  5574
KUIPER-00550            
1 69617U 26140AB  26197.17619755 -.00016456  00000+0 -51352-3 0  9990
2 69617  51.8789 259.2458 0007704  62.3850 297.7916 15.32007135  5683
KUIPER-00551            
1 69618U 26140AC  26195.47110642  .00013109  00000+0  35160-3 0  9992
2 69618  51.8780 266.5873 0012173 275.8264  84.1335 15.38237315  5430
KUIPER-00554            
1 69619U 26140AD  26197.16618560  .00021006  00000+0  56103-3 0  9998
2 69619  51.8779 258.4492 0010532 294.7161  65.2729 15.38008185  5695
KUIPER-00555            
1 69620U 26140AE  26197.16668980  .00030466  00000+0  80863-3 0  9991
2 69620  51.8811 258.4252 0011308 282.6873  94.8377 15.37974184  5165
KUIPER-00556            
1 69621U 26140AF  26196.51247523  .00014294  00000+0  38112-3 0  9997
2 69621  51.8798 261.5737 0011978 269.4470  90.5145 15.38342895  5594
KUIPER-00557            
1 69622U 26140AG  26196.39237908  .00012541  00000+0  34485-3 0  9992
2 69622  51.8799 262.2684 0009730 300.5398  59.4628 15.37532137  5571
KUIPER-00560            
1 69623U 26140AH  26197.16668980  .00029968  00000+0  82167-3 0  9998
2 69623  51.8782 258.4135 0009146 315.4770  63.2439 15.36998116  5274
KUIPER-00561            
1 69624U 26140AJ  26196.44970648  .00008740  00000+0  23456-3 0  9997
2 69624  51.8811 261.9079 0008173 307.9079  52.1169 15.38731571  5584
KUIPER-00564            
1 69625U 26140AK  26196.51943950  .00014541  00000+0  40220-3 0  9996
2 69625  51.8790 261.6212 0009230 303.1110  56.8990 15.37214015  5598
KUIPER-00567            
1 69626U 26140AL  26197.16668980  .00032082  00000+0  84116-3 0  9998
2 69626  51.8767 258.3683 0012878 272.7466 127.1285 15.38305331  5676
KUIPER-00573            
1 69627U 26140AM  26196.46120252  .00013619  00000+0  37413-3 0  9999
2 69627  51.8775 261.9707 0009393 287.3188  72.6771 15.37486142  5587
KZ-11 R/B               
1 69628U 26138H   26193.90834216  .00780150  97501-5  75497-3 0  9998
2 69628  55.1520 167.7492 0377051 143.6026 219.1292 15.43010363  3894
CENTISPACE-1 GROUP 05 O*
1 69636U 26138J   26194.40472368 -.00000256  00000+0 -51944-4 0  9997
2 69636  55.1383 184.3032 0009547 341.3483  18.7141 14.15842380  3707
